[{"OBJECT_NAME":"TEVEL2-3","OBJECT_ID":"2025-052J","EPOCH":"2026-03-09T15:29:22.754400","MEAN_MOTION":15.30377031,"ECCENTRICITY":0.0004761,"INCLINATION":97.3994,"RA_OF_ASC_NODE":324.7775,"ARG_OF_PERICENTER":105.7353,"MEAN_ANOMALY":254.4413,"EPHEMERIS_TYPE":0,"CLASSIFICATION_TYPE":"U","NORAD_CAT_ID":63218,"ELEMENT_SET_NO":999,"REV_AT_EPOCH":5485,"BSTAR":0.00069446,"MEAN_MOTION_DOT":0.00020365,"MEAN_MOTION_DDOT":0},{"OBJECT_NAME":"STARLINK-33728","OBJECT_ID":"2025-087U","EPOCH":"2026-03-09T16:53:29.284224","MEAN_MOTION":15.30196292,"ECCENTRICITY":8.81e-5,"INCLINATION":53.1573,"RA_OF_ASC_NODE":219.3537,"ARG_OF_PERICENTER":73.6575,"MEAN_ANOMALY":286.4522,"EPHEMERIS_TYPE":0,"CLASSIFICATION_TYPE":"U","NORAD_CAT_ID":63715,"ELEMENT_SET_NO":999,"REV_AT_EPOCH":4920,"BSTAR":0.00091184701,"MEAN_MOTION_DOT":0.00026741,"MEAN_MOTION_DDOT":0}]
